ONEWEB-0588             
1 55153U 23004P   25096.89335968 -.00000185  00000+0 -50098-3 0  9991
2 55153  87.9100  62.2330 0001699  97.0538 263.0787 13.18686240112195
ONEWEB-0598             
1 55154U 23004Q   25096.97161793 -.00000384  00000+0 -11198-2 0  9992
2 55154  87.8791 108.0442 0001352  81.6585 278.4696 13.11416807108727
ONEWEB-0599             
1 55155U 23004R   25096.92347616  .00000042  00000+0  73849-4 0  9990
2 55155  87.9011  92.7549 0001904  81.7284 278.4063 13.17646483110037
ONEWEB-0614             
1 55156U 23004S   25096.96653647 -.00000271  00000+0 -80080-3 0  9999
2 55156  87.8793 108.0533 0002175 100.3805 259.7568 13.11416387108666
ONEWEB-0616             
1 55157U 23004T   25096.96565706  .00000044  00000+0  79562-4 0  9998
2 55157  87.9005  92.7414 0002646  65.7198 294.4210 13.17651849110251
ONEWEB-0617             
1 55158U 23004U   25096.95467905  .00000289  00000+0  78076-3 0  9999
2 55158  87.8787 108.0393 0001909 102.6608 257.4734 13.11415455108682
ONEWEB-0618             
1 55159U 23004V   25096.98038930 -.00001250  00000+0 -42764-3 0  9991
2 55159  86.9124 348.7801 0015427  56.0561 304.2101 14.37092324117308
ONEWEB-0619             
1 55160U 23004W   25096.92180456  .00000092  00000+0  20497-3 0  9998
2 55160  87.9007  92.7274 0002519  91.9962 268.1458 13.17651023110144
